[{"OBJECT_NAME":"STARLINK-35780","OBJECT_ID":"2025-288R","EPOCH":"2026-03-09T05:47:19.980672","MEAN_MOTION":15.27572509,"ECCENTRICITY":8.265e-5,"INCLINATION":42.9984,"RA_OF_ASC_NODE":25.5657,"ARG_OF_PERICENTER":288.0165,"MEAN_ANOMALY":72.0596,"EPHEMERIS_TYPE":0,"CLASSIFICATION_TYPE":"U","NORAD_CAT_ID":66974,"ELEMENT_SET_NO":999,"REV_AT_EPOCH":1522,"BSTAR":0.00077910069,"MEAN_MOTION_DOT":0.00021234,"MEAN_MOTION_DDOT":0},{"OBJECT_NAME":"CZ-6A DEB","OBJECT_ID":"2022-151NB","EPOCH":"2026-03-09T18:26:17.609568","MEAN_MOTION":15.22372787,"ECCENTRICITY":0.00267955,"INCLINATION":98.6489,"RA_OF_ASC_NODE":154.0342,"ARG_OF_PERICENTER":180.4296,"MEAN_ANOMALY":179.6918,"EPHEMERIS_TYPE":0,"CLASSIFICATION_TYPE":"U","NORAD_CAT_ID":54601,"ELEMENT_SET_NO":999,"REV_AT_EPOCH":17694,"BSTAR":0.011449911,"MEAN_MOTION_DOT":0.00276508,"MEAN_MOTION_DDOT":0}]
